{
"type": "FeatureCollection",
"name": "geo_34_4",
"crs": { "type": "name", "properties": { "name": "urn:ogc:def:crs:OGC:1.3:CRS84" } },
"features": [
{ "type": "Feature", "properties": { "内容": "ＫＥＩ助産院【4:助産院】広島県広島市中区東白島町１５番８号第３西林ビル８０２", "url": "https://www.iryou.teikyouseido.mhlw.go.jp/znk-web/juminkanja/S2430/initialize?prefCd=34&kikanCd=5340000010&kikanKbn=4", "url2": "http://keymws.com/" }, "geometry": { "type": "Point", "coordinates": [ 132.462733, 34.409842 ] } },
{ "type": "Feature", "properties": { "内容": "朝隈助産院【4:助産院】広島県広島市安佐南区長束西四丁目５－１７－５", "url": "https://www.iryou.teikyouseido.mhlw.go.jp/znk-web/juminkanja/S2430/initialize?prefCd=34&kikanCd=5340000110&kikanKbn=4", "url2": "http://asakuma-jyosanin.jp/" }, "geometry": { "type": "Point", "coordinates": [ 132.445674, 34.430593 ] } },
{ "type": "Feature", "properties": { "内容": "Ｈａｎａ母乳育児相談【4:助産院】広島県広島市安佐南区八木町９丁目１５番１５号", "url": "https://www.iryou.teikyouseido.mhlw.go.jp/znk-web/juminkanja/S2430/initialize?prefCd=34&kikanCd=5340000160&kikanKbn=4", "url2": "http://www.hana-bonyu.com/" }, "geometry": { "type": "Point", "coordinates": [ 132.507368, 34.487022 ] } },
{ "type": "Feature", "properties": { "内容": "ふじわら助産院【4:助産院】広島県広島市佐伯区楽々園一丁目１番１１号", "url": "https://www.iryou.teikyouseido.mhlw.go.jp/znk-web/juminkanja/S2430/initialize?prefCd=34&kikanCd=5340000220&kikanKbn=4", "url2": "http://www.fujiwara-mw.net/" }, "geometry": { "type": "Point", "coordinates": [ 132.354493, 34.36502 ] } },
{ "type": "Feature", "properties": { "内容": "阿賀野助産所【4:助産院】広島県福山市春日町浦上２０９３番地２", "url": "https://www.iryou.teikyouseido.mhlw.go.jp/znk-web/juminkanja/S2430/initialize?prefCd=34&kikanCd=5340000320&kikanKbn=4", "url2": "https://www.agano-bc.com" }, "geometry": { "type": "Point", "coordinates": [ 133.41651, 34.515903 ] } },
{ "type": "Feature", "properties": { "内容": "ＭＹ助産院【4:助産院】広島県広島市南区宇品神田５丁目２６－７　今徳ビル１０６", "url": "https://www.iryou.teikyouseido.mhlw.go.jp/znk-web/juminkanja/S2430/initialize?prefCd=34&kikanCd=5340000740&kikanKbn=4", "url2": "https://www.my-josanin.com/" }, "geometry": { "type": "Point", "coordinates": [ 132.463443, 34.356185 ] } },
{ "type": "Feature", "properties": { "内容": "ゆい助産院【4:助産院】広島県広島市安佐北区可部８－６－８", "url": "https://www.iryou.teikyouseido.mhlw.go.jp/znk-web/juminkanja/S2430/initialize?prefCd=34&kikanCd=5340000770&kikanKbn=4", "url2": "https://yui-j.com" }, "geometry": { "type": "Point", "coordinates": [ 132.516296, 34.528817 ] } },
{ "type": "Feature", "properties": { "内容": "しおり助産院【4:助産院】広島県福山市神辺町上御領８２－１", "url": "https://www.iryou.teikyouseido.mhlw.go.jp/znk-web/juminkanja/S2430/initialize?prefCd=34&kikanCd=5340000810&kikanKbn=4", "url2": "http://goryo-healthlabo.com/" }, "geometry": { "type": "Point", "coordinates": [ 133.404873, 34.564016 ] } },
{ "type": "Feature", "properties": { "内容": "助産院よりと【4:助産院】広島県安芸高田市吉田町川本１４８９－１２", "url": "https://www.iryou.teikyouseido.mhlw.go.jp/znk-web/juminkanja/S2430/initialize?prefCd=34&kikanCd=5340000880&kikanKbn=4", "url2": "https://home.tsuku2.jp" }, "geometry": { "type": "Point", "coordinates": [ 132.665372, 34.649222 ] } },
{ "type": "Feature", "properties": { "内容": "悦喜助産院　えっちゃん母乳育児相談室【4:助産院】広島県廿日市市新宮１丁目１３番１８号大野ビル５０１", "url": "https://www.iryou.teikyouseido.mhlw.go.jp/znk-web/juminkanja/S2430/initialize?prefCd=34&kikanCd=5340000950&kikanKbn=4", "url2": "https://etsuki-mw.com/" }, "geometry": { "type": "Point", "coordinates": [ 132.331664, 34.350402 ] } },
{ "type": "Feature", "properties": { "内容": "助産院　マミィケアひだまり【4:助産院】広島県廿日市市廿日市２丁目６－６アクアコ－ト廿日市３０５号室", "url": "https://www.iryou.teikyouseido.mhlw.go.jp/znk-web/juminkanja/S2430/initialize?prefCd=34&kikanCd=5340000960&kikanKbn=4", "url2": "https://www.hidamari-mam.com/" }, "geometry": { "type": "Point", "coordinates": [ 132.33649, 34.355067 ] } },
{ "type": "Feature", "properties": { "内容": "一般社団法人　広島県助産師会立　たから助産院【4:助産院】広島県広島市安佐南区中須１丁目　４４－２６－８", "url": "https://www.iryou.teikyouseido.mhlw.go.jp/znk-web/juminkanja/S2430/initialize?prefCd=34&kikanCd=5340000990&kikanKbn=4", "url2": "http://takara.hiroshima-josanshikai.com" }, "geometry": { "type": "Point", "coordinates": [ 132.471938, 34.459346 ] } },
{ "type": "Feature", "properties": { "内容": "花笑助産所【4:助産院】広島県三原市本郷北４－２２－７", "url": "https://www.iryou.teikyouseido.mhlw.go.jp/znk-web/juminkanja/S2430/initialize?prefCd=34&kikanCd=5340001020&kikanKbn=4", "url2": "https://hanaemijyosanin.wixsite.com/website" }, "geometry": { "type": "Point", "coordinates": [ 132.993977, 34.411053 ] } },
{ "type": "Feature", "properties": { "内容": "くじら助産院　母乳育児相談室【4:助産院】広島県東広島市西条町郷曽４４０－６２", "url": "https://www.iryou.teikyouseido.mhlw.go.jp/znk-web/juminkanja/S2430/initialize?prefCd=34&kikanCd=5340001030&kikanKbn=4", "url2": "https://kujira-jyosanin.jimdofree.com/" }, "geometry": { "type": "Point", "coordinates": [ 132.717376, 34.381373 ] } },
{ "type": "Feature", "properties": { "内容": "中尾助産所スミレ母乳相談室【4:助産院】広島県三原市本郷町下北方２丁目２－１２", "url": "https://www.iryou.teikyouseido.mhlw.go.jp/znk-web/juminkanja/S2430/initialize?prefCd=34&kikanCd=5340001040&kikanKbn=4", "url2": null }, "geometry": { "type": "Point", "coordinates": [ 132.969668, 34.410287 ] } },
{ "type": "Feature", "properties": { "内容": "ゆりかご助産院【4:助産院】広島県福山市南本庄１－３－３　あおいビル４階", "url": "https://www.iryou.teikyouseido.mhlw.go.jp/znk-web/juminkanja/S2430/initialize?prefCd=34&kikanCd=5340001230&kikanKbn=4", "url2": "http://midwifemap.com/yurikago/mysite/" }, "geometry": { "type": "Point", "coordinates": [ 133.35414, 34.486556 ] } },
{ "type": "Feature", "properties": { "内容": "夕陽ケ丘助産院【4:助産院】広島県呉市海岸２－１４－１", "url": "https://www.iryou.teikyouseido.mhlw.go.jp/znk-web/juminkanja/S2430/initialize?prefCd=34&kikanCd=5340001250&kikanKbn=4", "url2": null }, "geometry": { "type": "Point", "coordinates": [ 132.545923, 34.245906 ] } },
{ "type": "Feature", "properties": { "内容": "みんなの助産所【4:助産院】広島県廿日市市大野８４１１番地", "url": "https://www.iryou.teikyouseido.mhlw.go.jp/znk-web/juminkanja/S2430/initialize?prefCd=34&kikanCd=5340001340&kikanKbn=4", "url2": null }, "geometry": { "type": "Point", "coordinates": [ 132.243616, 34.263942 ] } },
{ "type": "Feature", "properties": { "内容": "いづみ助産院【4:助産院】広島県安芸郡府中町鹿籠一丁目１９－２３", "url": "https://www.iryou.teikyouseido.mhlw.go.jp/znk-web/juminkanja/S2430/initialize?prefCd=34&kikanCd=5340001400&kikanKbn=4", "url2": null }, "geometry": { "type": "Point", "coordinates": [ 132.504545, 34.380602 ] } },
{ "type": "Feature", "properties": { "内容": "くぬぎ助産所【4:助産院】広島県安芸郡府中町瀬戸ハイム三丁目８－３０", "url": "https://www.iryou.teikyouseido.mhlw.go.jp/znk-web/juminkanja/S2430/initialize?prefCd=34&kikanCd=5340001410&kikanKbn=4", "url2": "kunugi-care.com" }, "geometry": { "type": "Point", "coordinates": [ 132.519011, 34.38959 ] } }
]
}
